{
  "type": "FeatureCollection",
  "features": [
    {
      "type": "Feature",
      "properties": {
        "norad_id": 66618,
        "name": "STARLINK-35970",
        "group": "last-30-days",
        "lat": -49.15054902290188,
        "lon": -3.9182158034254444,
        "alt_km": 452.536301453576,
        "timestamp": "2025-12-27T16:33:28.971057+00:00",
        "meta_object_name": "STARLINK-35970",
        "meta_object_id": "2025-271B",
        "meta_epoch": "2025-12-27T12:00:02.000160",
        "meta_mean_motion": 15.39608561,
        "meta_eccentricity": 8.44e-05,
        "meta_inclination": 53.1599,
        "meta_ra_of_asc_node": 116.8599,
        "meta_arg_of_pericenter": 83.4528,
        "meta_mean_anomaly": 194.3828,
        "meta_ephemeris_type": 0,
        "meta_classification_type": "U",
        "meta_norad_cat_id": 66618,
        "meta_element_set_no": 999,
        "meta_rev_at_epoch": 607,
        "meta_bstar": 0.00021493,
        "meta_mean_motion_dot": 8.204e-05,
        "meta_mean_motion_ddot": 0,
        "tle_line1": "1 66618U 25271B   25361.50002315  .00008204  00000+0  21493-3 0  9992",
        "tle_line2": "2 66618  53.1599 116.8599 0000844  83.4528 194.3828 15.39608561  6078"
      },
      "geometry": {
        "type": "Point",
        "coordinates": [
          -3.9182158034254444,
          -49.15054902290188
        ]
      }
    },
    {
      "type": "Feature",
      "properties": {
        "norad_id": 66619,
        "name": "STARLINK-35951",
        "group": "last-30-days",
        "lat": 26.398297245887115,
        "lon": -85.66790348083046,
        "alt_km": 442.4063705424269,
        "timestamp": "2025-12-27T16:33:28.971067+00:00",
        "meta_object_name": "STARLINK-35951",
        "meta_object_id": "2025-271C",
        "meta_epoch": "2025-12-27T11:15:08.184672",
        "meta_mean_motion": 15.39623021,
        "meta_eccentricity": 0.0002569,
        "meta_inclination": 53.1605,
        "meta_ra_of_asc_node": 117.221,
        "meta_arg_of_pericenter": 131.3388,
        "meta_mean_anomaly": 228.7839,
        "meta_ephemeris_type": 0,
        "meta_classification_type": "U",
        "meta_norad_cat_id": 66619,
        "meta_element_set_no": 999,
        "meta_rev_at_epoch": 648,
        "meta_bstar": 0.0011537,
        "meta_mean_motion_dot": 0.00046035,
        "meta_mean_motion_ddot": 0,
        "tle_line1": "1 66619U 25271C   25361.46884473  .00046035  00000+0  11537-2 0  9992",
        "tle_line2": "2 66619  53.1605 117.2210 0002569 131.3388 228.7839 15.39623021  6482"
      },
      "geometry": {
        "type": "Point",
        "coordinates": [
          -85.66790348083046,
          26.398297245887115
        ]
      }
    },
    {
      "type": "Feature",
      "properties": {
        "norad_id": 66620,
        "name": "STARLINK-35936",
        "group": "last-30-days",
        "lat": 52.88545097454634,
        "lon": -145.95627900128014,
        "alt_km": 439.1203316498477,
        "timestamp": "2025-12-27T16:33:28.971077+00:00",
        "meta_object_name": "STARLINK-35936",
        "meta_object_id": "2025-271D",
        "meta_epoch": "2025-12-27T11:28:30.844128",
        "meta_mean_motion": 15.3966657,
        "meta_eccentricity": 0.0001314,
        "meta_inclination": 53.1584,
        "meta_ra_of_asc_node": 117.2799,
        "meta_arg_of_pericenter": 67.8464,
        "meta_mean_anomaly": 292.268,
        "meta_ephemeris_type": 0,
        "meta_classification_type": "U",
        "meta_norad_cat_id": 66620,
        "meta_element_set_no": 999,
        "meta_rev_at_epoch": 648,
        "meta_bstar": 0.001277,
        "meta_mean_motion_dot": 0.00051102,
        "meta_mean_motion_ddot": 0,
        "tle_line1": "1 66620U 25271D   25361.47813477  .00051102  00000+0  12770-2 0  9992",
        "tle_line2": "2 66620  53.1584 117.2799 0001314  67.8464 292.2680 15.39666570  6483"
      },
      "geometry": {
        "type": "Point",
        "coordinates": [
          -145.95627900128014,
          52.88545097454634
        ]
      }
    },
    {
      "type": "Feature",
      "properties": {
        "norad_id": 66621,
        "name": "STARLINK-35847",
        "group": "last-30-days",
        "lat": -52.62363377523936,
        "lon": 36.96760912363757,
        "alt_km": 452.9269346640258,
        "timestamp": "2025-12-27T16:33:28.971088+00:00",
        "meta_object_name": "STARLINK-35847",
        "meta_object_id": "2025-271E",
        "meta_epoch": "2025-12-27T12:00:02.000160",
        "meta_mean_motion": 15.39608104,
        "meta_eccentricity": 0.0001449,
        "meta_inclination": 53.1595,
        "meta_ra_of_asc_node": 116.808,
        "meta_arg_of_pericenter": 66.2094,
        "meta_mean_anomaly": 237.3881,
        "meta_ephemeris_type": 0,
        "meta_classification_type": "U",
        "meta_norad_cat_id": 66621,
        "meta_element_set_no": 999,
        "meta_rev_at_epoch": 607,
        "meta_bstar": 0.00025769,
        "meta_mean_motion_dot": 9.917e-05,
        "meta_mean_motion_ddot": 0,
        "tle_line1": "1 66621U 25271E   25361.50002315  .00009917  00000+0  25769-3 0  9998",
        "tle_line2": "2 66621  53.1595 116.8080 0001449  66.2094 237.3881 15.39608104  6072"
      },
      "geometry": {
        "type": "Point",
        "coordinates": [
          36.96760912363757,
          -52.62363377523936
        ]
      }
    },
    {
      "type": "Feature",
      "properties": {
        "norad_id": 66622,
        "name": "STARLINK-35950",
        "group": "last-30-days",
        "lat": 13.783425432444172,
        "lon": 127.03347966845023,
        "alt_km": 445.8671853298365,
        "timestamp": "2025-12-27T16:33:28.971099+00:00",
        "meta_object_name": "STARLINK-35950",
        "meta_object_id": "2025-271F",
        "meta_epoch": "2025-12-27T11:48:34.225056",
        "meta_mean_motion": 15.39690645,
        "meta_eccentricity": 7.88e-05,
        "meta_inclination": 53.1595,
        "meta_ra_of_asc_node": 117.3679,
        "meta_arg_of_pericenter": 101.9624,
        "meta_mean_anomaly": 258.147,
        "meta_ephemeris_type": 0,
        "meta_classification_type": "U",
        "meta_norad_cat_id": 66622,
        "meta_element_set_no": 999,
        "meta_rev_at_epoch": 648,
        "meta_bstar": 0.0010548,
        "meta_mean_motion_dot": 0.00042122,
        "meta_mean_motion_ddot": 0,
        "tle_line1": "1 66622U 25271F   25361.49206279  .00042122  00000+0  10548-2 0  9995",
        "tle_line2": "2 66622  53.1595 117.3679 0000788 101.9624 258.1470 15.39690645  6485"
      },
      "geometry": {
        "type": "Point",
        "coordinates": [
          127.03347966845023,
          13.783425432444172
        ]
      }
    },
    {
      "type": "Feature",
      "properties": {
        "norad_id": 66623,
        "name": "STARLINK-35920",
        "group": "last-30-days",
        "lat": -26.698860005693867,
        "lon": 94.38563629724433,
        "alt_km": 451.8993679928135,
        "timestamp": "2025-12-27T16:33:28.971109+00:00",
        "meta_object_name": "STARLINK-35920",
        "meta_object_id": "2025-271G",
        "meta_epoch": "2025-12-27T12:01:56.510400",
        "meta_mean_motion": 15.39677909,
        "meta_eccentricity": 0.0001898,
        "meta_inclination": 53.1604,
        "meta_ra_of_asc_node": 117.4252,
        "meta_arg_of_pericenter": 143.5961,
        "meta_mean_anomaly": 216.5173,
        "meta_ephemeris_type": 0,
        "meta_classification_type": "U",
        "meta_norad_cat_id": 66623,
        "meta_element_set_no": 999,
        "meta_rev_at_epoch": 648,
        "meta_bstar": 0.0015117,
        "meta_mean_motion_dot": 0.00060668,
        "meta_mean_motion_ddot": 0,
        "tle_line1": "1 66623U 25271G   25361.50134850  .00060668  00000+0  15117-2 0  9995",
        "tle_line2": "2 66623  53.1604 117.4252 0001898 143.5961 216.5173 15.39677909  6480"
      },
      "geometry": {
        "type": "Point",
        "coordinates": [
          94.38563629724433,
          -26.698860005693867
        ]
      }
    },
    {
      "type": "Feature",
      "properties": {
        "norad_id": 66624,
        "name": "STARLINK-35927",
        "group": "last-30-days",
        "lat": 6.367810654480939,
        "lon": -68.67173215313717,
        "alt_km": 447.59398635329035,
        "timestamp": "2025-12-27T16:33:28.971119+00:00",
        "meta_object_name": "STARLINK-35927",
        "meta_object_id": "2025-271H",
        "meta_epoch": "2025-12-27T08:01:29.859168",
        "meta_mean_motion": 15.39652071,
        "meta_eccentricity": 7.98e-05,
        "meta_inclination": 53.1605,
        "meta_ra_of_asc_node": 117.8035,
        "meta_arg_of_pericenter": 348.0144,
        "meta_mean_anomaly": 12.0842,
        "meta_ephemeris_type": 0,
        "meta_classification_type": "U",
        "meta_norad_cat_id": 66624,
        "meta_element_set_no": 999,
        "meta_rev_at_epoch": 646,
        "meta_bstar": 0.0014434,
        "meta_mean_motion_dot": 0.00057834,
        "meta_mean_motion_ddot": 0,
        "tle_line1": "1 66624U 25271H   25361.33437337  .00057834  00000+0  14434-2 0  9995",
        "tle_line2": "2 66624  53.1605 117.8035 0000798 348.0144  12.0842 15.39652071  6461"
      },
      "geometry": {
        "type": "Point",
        "coordinates": [
          -68.67173215313717,
          6.367810654480939
        ]
      }
    }
  ]
}